OBJECT_NAME,OBJECT_ID,EPOCH,MEAN_MOTION,ECCENTRICITY,INCLINATION,RA_OF_ASC_NODE,ARG_OF_PERICENTER,MEAN_ANOMALY,EPHEMERIS_TYPE,CLASSIFICATION_TYPE,NORAD_CAT_ID,ELEMENT_SET_NO,REV_AT_EPOCH,BSTAR,MEAN_MOTION_DOT,MEAN_MOTION_DDOT
DMSP 5D-3 F16 (USA 172),2003-048A,2026-06-26T03:38:43.160352,14.14483614,.0008075,98.9888,201.0394,117.7202,322.4780,0,U,28054,999,17075,.29436E-4,.11E-6,0
METEOSAT-9 (MSG-2),2005-049B,2026-06-25T19:39:35.246880,1.00277120,.0001994,9.3807,54.0841,355.8110,204.6730,0,U,28912,999,708,0,.125E-5,0
DMSP 5D-3 F17 (USA 191),2006-050A,2026-06-26T03:36:02.412288,14.14993944,.0010806,98.7378,183.5367,35.9970,324.1930,0,U,29522,999,1369,.38527E-4,.31E-6,0
FENGYUN 3A,2008-026A,2026-06-25T17:12:11.856960,14.19572796,.0009859,98.6884,117.3905,101.6563,258.5720,0,U,32958,999,93661,.50621E-4,.64E-6,0
GOES 14,2009-033A,2026-06-26T00:37:51.672864,1.00108583,.0002226,1.7132,82.9457,18.3992,318.9543,0,U,35491,999,667,0,-.312E-5,0
DMSP 5D-3 F18 (USA 210),2009-057A,2026-06-26T04:37:29.995392,14.14901705,.001017,98.9040,157.9423,221.1836,138.8571,0,U,35951,999,86086,.14964E-3,.244E-5,0
EWS-G2 (GOES 15),2010-008A,2026-06-26T02:35:21.041952,1.00268017,.0005299,1.3019,82.7321,42.7545,251.1517,0,U,36411,999,5972,0,.3E-6,0
COMS 1,2010-032A,2026-06-25T23:02:44.049120,0.99166082,.001189,4.8275,75.2556,13.2572,209.7173,0,U,36744,999,5117,0,.58E-6,0
FENGYUN 3B,2010-059A,2026-06-26T05:14:24.285696,14.14841835,.0022429,98.9620,223.2712,158.4566,283.1014,0,U,37214,999,80870,-.37877E-4,-.118E-5,0
SUOMI NPP,2011-061A,2026-06-26T03:37:52.012416,14.19519144,.0001015,98.7954,117.9661,341.3576,18.7563,0,U,37849,999,75971,.49587E-4,.6E-6,0
METEOSAT-10 (MSG-3),2012-035B,2026-06-26T00:34:16.711392,1.00268444,.0001742,4.6924,60.9829,8.1161,213.8156,0,U,38552,999,5094,0,0,0
METOP-B,2012-049A,2026-06-26T04:47:32.046144,14.21441599,.000167,98.6500,228.5189,353.2902,6.8253,0,U,38771,999,71454,.60883E-4,.9E-6,0
INSAT-3D,2013-038B,2026-06-25T23:28:56.536032,1.00272220,.0001129,1.9489,82.4409,0.0611,313.3627,0,U,39216,999,4716,0,-.33E-5,0
FENGYUN 3C,2013-052A,2026-06-26T05:33:09.633600,14.15757065,.0014709,98.4983,150.6910,2.3428,357.7813,0,U,39260,999,65984,.67109E-4,.9E-6,0
METEOR-M 2,2014-037A,2026-06-26T05:25:18.617952,14.21463611,.0006356,98.5113,152.6440,21.7529,338.3917,0,U,40069,999,62060,.59832E-4,.89E-6,0
HIMAWARI-8,2014-060A,2026-06-25T23:59:15.745056,1.00270734,.0001539,0.0152,307.3027,150.6858,316.6040,0,U,40267,999,4284,0,-.265E-5,0
FENGYUN 2G,2014-090A,2026-06-25T18:12:17.409312,1.00269333,.0003599,5.6611,72.7168,151.3751,62.5277,0,U,40367,999,4208,0,-.296E-5,0
METEOSAT-11 (MSG-4),2015-034A,2026-06-26T04:02:39.505056,1.00265880,.0002261,3.2230,71.0535,347.2688,286.0801,0,U,40732,999,730,0,.7E-6,0
ELEKTRO-L 2,2015-074A,2026-06-25T22:47:48.794784,1.00271163,.0000728,6.7170,70.4166,286.6211,244.4527,0,U,41105,999,3859,0,-.113E-5,0
SENTINEL-3A,2016-011A,2026-06-26T04:38:11.730048,14.26734963,.0001432,98.6246,244.4474,97.1017,263.0326,0,U,41335,999,53934,.56795E-4,.94E-6,0
INSAT-3DR,2016-054A,2026-06-26T02:38:20.754816,1.00272380,.0010079,0.1285,86.2314,187.0454,114.5183,0,U,41752,999,3590,0,-.66E-6,0
HIMAWARI-9,2016-064A,2026-06-25T23:32:03.737184,1.00269096,.0001217,0.0245,35.1510,79.8027,292.9390,0,U,41836,999,3529,0,0,0
GOES 16,2016-071A,2026-06-26T05:31:09.471072,1.00272055,.000056,0.3642,85.5308,4.8068,162.1132,0,U,41866,999,3519,0,-.8E-6,0
FENGYUN 4A,2016-077A,2026-06-25T23:27:11.704320,1.00264857,.0008248,2.3456,80.1956,152.1167,157.2001,0,U,41882,999,3501,0,-.349E-5,0
CYGFM05,2016-078A,2026-06-25T10:50:05.038080,15.56995331,.0008008,34.9556,205.8511,227.3909,132.6140,0,U,41884,999,53004,.33396E-3,.24975E-3,0
CYGFM04,2016-078B,2026-06-26T03:54:53.416800,15.61980901,.000728,34.9303,168.3700,269.6738,90.3153,0,U,41885,999,53040,.36084E-3,.32687E-3,0
CYGFM02,2016-078C,2026-06-26T03:30:49.837824,15.65051558,.0008286,34.9384,162.7519,271.8784,88.0994,0,U,41886,999,53057,.38945E-3,.39889E-3,0
CYGFM01,2016-078D,2026-06-25T10:28:35.911200,15.57683122,.0007735,34.9386,206.9400,221.6360,138.3776,0,U,41887,999,52999,.34012E-3,.26106E-3,0
CYGFM08,2016-078E,2026-06-25T10:41:51.654336,15.60404106,.0009125,34.9414,186.2381,250.2663,109.7078,0,U,41888,999,53026,.37195E-3,.31715E-3,0
CYGFM07,2016-078G,2026-06-25T08:10:10.568640,15.60497342,.0007667,34.9428,175.2742,263.1104,96.8749,0,U,41890,999,53027,.37193E-3,.31809E-3,0
CYGFM03,2016-078H,2026-06-25T09:00:36.033984,15.60491965,.0007324,34.9384,176.9757,252.1288,107.8639,0,U,41891,999,53025,.37173E-3,.31781E-3,0
